$$SOE
2460154.500000000, A.D. 2023-Jul-29 00:00:00.0000, 2.927886745510747E+08, 3.204359628222616E+08, 6.435383481851515E+07,
2460161.500000000, A.D. 2023-Aug-05 00:00:00.0000, 2.853763905059626E+08, 3.284350326098256E+08, 6.392561642646010E+07,
2460168.500000000, A.D. 2023-Aug-12 00:00:00.0000, 2.778014869906231E+08, 3.362466861517874E+08, 6.346083465270643E+07,
2460175.500000000, A.D. 2023-Aug-19 00:00:00.0000, 2.700693403941014E+08, 3.438677433987931E+08, 6.295999944412325E+07,
2460182.500000000, A.D. 2023-Aug-26 00:00:00.0000, 2.621853660333037E+08, 3.512952011776947E+08, 6.242363935685283E+07,
2460189.500000000, A.D. 2023-Sep-02 00:00:00.0000, 2.541550115780101E+08, 3.585262319676295E+08, 6.185230054312560E+07,
2460196.500000000, A.D. 2023-Sep-09 00:00:00.0000, 2.459837506787089E+08, 3.655581823043438E+08, 6.124654573487462E+07,
2460203.500000000, A.D. 2023-Sep-16 00:00:00.0000, 2.376770769743151E+08, 3.723885707720895E+08, 6.060695320665914E+07,
2460210.500000000, A.D. 2023-Sep-23 00:00:00.0000, 2.292404989042194E+08, 3.790150858876808E+08, 5.993411570578946E+07,
2460217.500000000, A.D. 2023-Sep-30 00:00:00.0000, 2.206795349928639E+08, 3.854355850841599E+08, 5.922863948031175E+07,
2460224.500000000, A.D. 2023-Oct-07 00:00:00.0000, 2.119997072578945E+08, 3.916480942650738E+08, 5.849114357767811E+07,
2460231.500000000, A.D. 2023-Oct-14 00:00:00.0000, 2.032065337836438E+08, 3.976508046320500E+08, 5.772225904970932E+07,
2460238.500000000, A.D. 2023-Oct-21 00:00:00.0000, 1.943055236927899E+08, 4.034420684058709E+08, 5.692262790068612E+07,
2460245.500000000, A.D. 2023-Oct-28 00:00:00.0000, 1.853021730941271E+08, 4.090203957145433E+08, 5.609290209472892E+07,
2460252.500000000, A.D. 2023-Nov-04 00:00:00.0000, 1.762019607549380E+08, 4.143844518913097E+08, 5.523374267505288E+07,
2460259.500000000, A.D. 2023-Nov-11 00:00:00.0000, 1.670103436736539E+08, 4.195330545982122E+08, 5.434581893135509E+07,
2460266.500000000, A.D. 2023-Nov-18 00:00:00.0000, 1.577327527712725E+08, 4.244651707270570E+08, 5.342980759173799E+07,
2460273.500000000, A.D. 2023-Nov-25 00:00:00.0000, 1.483745887738430E+08, 4.291799131155739E+08, 5.248639203582710E+07,
2460280.500000000, A.D. 2023-Dec-02 00:00:00.0000, 1.389412183132567E+08, 4.336765370810692E+08, 5.151626152649578E+07,
2460287.500000000, A.D. 2023-Dec-09 00:00:00.0000, 1.294379703219506E+08, 4.379544367245635E+08, 5.052011044861072E+07,
2460294.500000000, A.D. 2023-Dec-16 00:00:00.0000, 1.198701330053394E+08, 4.420131410291481E+08, 4.949863752954331E+07,
2460301.500000000, A.D. 2023-Dec-23 00:00:00.0000, 1.102429517358946E+08, 4.458523104514606E+08, 4.845254506572390E+07,
2460308.500000000, A.D. 2023-Dec-30 00:00:00.0000, 1.005616265245039E+08, 4.494717350663166E+08, 4.738253836377472E+07,
2460315.500000000, A.D. 2024-Jan-06 00:00:00.0000, 9.083130729107282E+07, 4.528713319115986E+08, 4.628932536536551E+07,
2460322.500000000, A.D. 2024-Jan-13 00:00:00.0000, 8.105709009935203E+07, 4.560511397364280E+08, 4.517361601720458E+07,
2460329.500000000, A.D. 2024-Jan-20 00:00:00.0000, 7.124401557468461E+07, 4.590113142495674E+08, 4.403612152623746E+07,
2460336.500000000, A.D. 2024-Jan-27 00:00:00.0000, 6.139706747180530E+07, 4.617521245287431E+08, 4.287755373889607E+07,
2460343.500000000, A.D. 2024-Feb-03 00:00:00.0000, 5.152117095850392E+07, 4.642739496490223E+08, 4.169862460550427E+07,
2460350.500000000, A.D. 2024-Feb-10 00:00:00.0000, 4.162119088625260E+07, 4.665772752459268E+08, 4.050004568001053E+07,
2460357.500000000, A.D. 2024-Feb-17 00:00:00.0000, 3.170193018020808E+07, 4.686626900276379E+08, 3.928252764235774E+07,
2460364.500000000, A.D. 2024-Feb-24 00:00:00.0000, 2.176812837814216E+07, 4.705308822569348E+08, 3.804677984075424E+07,
2460371.500000000, A.D. 2024-Mar-02 00:00:00.0000, 1.182446034115199E+07, 4.721826361756272E+08, 3.679350984784195E+07,
2460378.500000000, A.D. 2024-Mar-09 00:00:00.0000, 1.875535268328212E+06, 4.736188283134067E+08, 3.552342301224568E+07,
2460385.500000000, A.D. 2024-Mar-16 00:00:00.0000, -8.074103596112399E+06, 4.748404238829402E+08, 3.423722198476097E+07,
2460392.500000000, A.D. 2024-Mar-23 00:00:00.0000, -1.801997867341007E+07, 4.758484743751492E+08, 3.293560631872952E+07,
2460399.500000000, A.D. 2024-Mar-30 00:00:00.0000, -2.795767942505816E+07, 4.766441163318926E+08, 3.161927234721881E+07,
2460406.500000000, A.D. 2024-Apr-06 00:00:00.0000, -3.788286514166938E+07, 4.772285679290755E+08, 3.028891303745335E+07,
2460413.500000000, A.D. 2024-Apr-13 00:00:00.0000, -4.779126560298245E+07, 4.776031242089351E+08, 2.894521756467777E+07,
2460420.500000000, A.D. 2024-Apr-20 00:00:00.0000, -5.767868056744629E+07, 4.777691536429850E+08, 2.758887091102317E+07,
2460427.500000000, A.D. 2024-Apr-27 00:00:00.0000, -6.754097961342426E+07, 4.777280954664387E+08, 2.622055358188960E+07,
2460434.500000000, A.D. 2024-May-04 00:00:00.0000, -7.737410224990103E+07, 4.774814570818011E+08, 2.484094137362784E+07,
2460441.500000000, A.D. 2024-May-11 00:00:00.0000, -8.717405806433773E+07, 4.770308114312385E+08, 2.345070516177201E+07,
2460448.500000000, A.D. 2024-May-18 00:00:00.0000, -9.693692683146554E+07, 4.763777943608732E+08, 2.205051070354691E+07,
2460455.500000000, A.D. 2024-May-25 00:00:00.0000, -1.066588585638241E+08, 4.755241019713082E+08, 2.064101845130962E+07,
2460462.500000000, A.D. 2024-Jun-01 00:00:00.0000, -1.163360734494352E+08, 4.744714878981729E+08, 1.922288336627442E+07,
2460469.500000000, A.D. 2024-Jun-08 00:00:00.0000, -1.259648614351772E+08, 4.732217605006419E+08, 1.779675470759326E+07,
2460476.500000000, A.D. 2024-Jun-15 00:00:00.0000, -1.355415810610163E+08, 4.717767805036713E+08, 1.636327580423373E+07,
2460483.500000000, A.D. 2024-Jun-22 00:00:00.0000, -1.450626585545310E+08, 4.701384602698626E+08, 1.492308399737859E+07,
2460490.500000000, A.D. 2024-Jun-29 00:00:00.0000, -1.545245893100868E+08, 4.683087628795629E+08, 1.347681079854807E+07,
2460497.500000000, A.D. 2024-Jul-06 00:00:00.0000, -1.639239391109375E+08, 4.662896985440832E+08, 1.202508181850073E+07,
2460504.500000000, A.D. 2024-Jul-13 00:00:00.0000, -1.732573431513595E+08, 4.640833211739303E+08, 1.056851651871052E+07,
2460511.500000000, A.D. 2024-Jul-20 00:00:00.0000, -1.825215048501644E+08, 4.616917262516992E+08, 9.107728061041385E+06,
2460518.500000000, A.D. 2024-Jul-27 00:00:00.0000, -1.917131951157902E+08, 4.591170490505682E+08, 7.643323236864448E+06,
2460525.500000000, A.D. 2024-Aug-03 00:00:00.0000, -2.008292517938876E+08, 4.563614628235148E+08, 6.175902419347554E+06,
2460532.500000000, A.D. 2024-Aug-10 00:00:00.0000, -2.098665791349491E+08, 4.534271769588674E+08, 4.706059522611350E+06,
2460539.500000000, A.D. 2024-Aug-17 00:00:00.0000, -2.188221472374846E+08, 4.503164351235742E+08, 3.234381964373648E+06,
2460546.500000000, A.D. 2024-Aug-24 00:00:00.0000, -2.276929914415373E+08, 4.470315133710666E+08, 1.761450626876444E+06,
2460553.500000000, A.D. 2024-Aug-31 00:00:00.0000, -2.364762115595248E+08, 4.435747181509768E+08, 2.878397996669710E+05,
2460560.500000000, A.D. 2024-Sep-07 00:00:00.0000, -2.451689705815971E+08, 4.399483843455971E+08, -1.185882919713169E+06,
2460567.500000000, A.D. 2024-Sep-14 00:00:00.0000, -2.537684927732702E+08, 4.361548743276110E+08, -2.659156694279134E+06,
2460574.500000000, A.D. 2024-Sep-21 00:00:00.0000, -2.622720631971818E+08, 4.321965784512033E+08, -4.131427266357034E+06,
2460581.500000000, A.D. 2024-Sep-28 00:00:00.0000, -2.706770291478857E+08, 4.280759137479836E+08, -5.602146746278733E+06,
2460588.500000000, A.D. 2024-Oct-05 00:00:00.0000, -2.789807998312770E+08, 4.237953208261127E+08, -7.070773707820743E+06,
2460595.500000000, A.D. 2024-Oct-12 00:00:00.0000, -2.871808446527212E+08, 4.193572619508501E+08, -8.536773314201415E+06,
2460602.500000000, A.D. 2024-Oct-19 00:00:00.0000, -2.952746918674673E+08, 4.147642200356187E+08, -9.999617336754113E+06,
2460609.500000000, A.D. 2024-Oct-26 00:00:00.0000, -3.032599276271076E+08, 4.100186977411937E+08, -1.145878412922698E+07,
2460616.500000000, A.D. 2024-Nov-02 00:00:00.0000, -3.111341951661407E+08, 4.051232165330601E+08, -1.291375859374878E+07,
2460623.500000000, A.D. 2024-Nov-09 00:00:00.0000, -3.188951940335467E+08, 4.000803157161981E+08, -1.436403214591219E+07,
2460630.500000000, A.D. 2024-Nov-16 00:00:00.0000, -3.265406793449184E+08, 3.948925514462699E+08, -1.580910268159510E+07,
2460637.500000000, A.D. 2024-Nov-23 00:00:00.0000, -3.340684610095433E+08, 3.895624956660459E+08, -1.724847455413699E+07,
2460644.500000000, A.D. 2024-Nov-30 00:00:00.0000, -3.414764027253687E+08, 3.840927349231033E+08, -1.868165858465806E+07,
2460651.500000000, A.D. 2024-Dec-07 00:00:00.0000, -3.487624203236473E+08, 3.784858694879763E+08, -2.010817210977459E+07,
2460658.500000000, A.D. 2024-Dec-14 00:00:00.0000, -3.559244801535277E+08, 3.727445139954555E+08, -2.152753890371038E+07,
2460665.500000000, A.D. 2024-Dec-21 00:00:00.0000, -3.629605998269050E+08, 3.668712983678892E+08, -2.293928886383910E+07,
2460672.500000000, A.D. 2024-Dec-28 00:00:00.0000, -3.698688493511441E+08, 3.608688660523524E+08, -2.434295788315271E+07,
2460679.500000000, A.D. 2025-Jan-04 00:00:00.0000, -3.766473500524671E+08, 3.547398719451565E+08, -2.573808795344713E+07,
2460686.500000000, A.D. 2025-Jan-11 00:00:00.0000, -3.832942731132385E+08, 3.484869816618972E+08, -2.712422719659403E+07,
2460693.500000000, A.D. 2025-Jan-18 00:00:00.0000, -3.898078386415371E+08, 3.421128712339784E+08, -2.850092981507921E+07,
2460700.500000000, A.D. 2025-Jan-25 00:00:00.0000, -3.961863150298850E+08, 3.356202267563072E+08, -2.986775602294064E+07,
2460707.500000000, A.D. 2025-Feb-01 00:00:00.0000, -4.024280184138374E+08, 3.290117439548113E+08, -3.122427197688752E+07,
2460714.500000000, A.D. 2025-Feb-08 00:00:00.0000, -4.085313121722229E+08, 3.222901276921898E+08, -3.257004971129802E+07,
2460721.500000000, A.D. 2025-Feb-15 00:00:00.0000, -4.144946064402494E+08, 3.154580913906203E+08, -3.390466708133015E+07,
$$EOE